{
  "norad_id": 65219,
  "name": "STARLINK-34960",
  "history": [
    {
      "epoch": "2026-03-28T22:54:31.884480Z",
      "apogee_km": 476.248970573567,
      "perigee_km": 474.06290719192293,
      "latitude_deg": 4.284233548938625e-05,
      "longitude_deg": -107.0205893439993,
      "height_km": 476.06067200324065,
      "semi_major_axis_km": 6853.292938882745,
      "eccentricity": 0.00015949,
      "inclination_deg": 53.1584,
      "raan_deg": 62.9798,
      "arg_perigee_deg": 90.3817,
      "mean_anomaly_deg": 269.7367,
      "mean_motion_rev_day": 15.30219804
    },
    {
      "epoch": "2026-03-29T05:10:44.571360Z",
      "apogee_km": 476.04990239026665,
      "perigee_km": 474.266674956154,
      "latitude_deg": -2.9076148311602854e-05,
      "longitude_deg": 157.45518757651547,
      "height_km": 475.9898644255891,
      "semi_major_axis_km": 6853.29528867321,
      "eccentricity": 0.0001301,
      "inclination_deg": 53.1584,
      "raan_deg": 61.766,
      "arg_perigee_deg": 85.7354,
      "mean_anomaly_deg": 274.3795,
      "mean_motion_rev_day": 15.30219017
    },
    {
      "epoch": "2026-03-30T04:41:32.729280Z",
      "apogee_km": 476.14315123232336,
      "perigee_km": 474.3752491485229,
      "latitude_deg": 4.360204663087857e-05,
      "longitude_deg": 159.23872426354484,
      "height_km": 476.012143497174,
      "semi_major_axis_km": 6853.396200190423,
      "eccentricity": 0.00012898,
      "inclination_deg": 53.1588,
      "raan_deg": 57.2158,
      "arg_perigee_deg": 80.5594,
      "mean_anomaly_deg": 279.5553,
      "mean_motion_rev_day": 15.3018522
    },
    {
      "epoch": "2026-03-31T07:20:27.261312Z",
      "apogee_km": 476.144343715524,
      "perigee_km": 474.3117539014729,
      "latitude_deg": -4.707937002942472e-05,
      "longitude_deg": 113.25872702767073,
      "height_km": 476.06696060215546,
      "semi_major_axis_km": 6853.365048808499,
      "eccentricity": 0.0001337,
      "inclination_deg": 53.1593,
      "raan_deg": 52.0575,
      "arg_perigee_deg": 86.3078,
      "mean_anomaly_deg": 273.8075,
      "mean_motion_rev_day": 15.30195653
    },
    {
      "epoch": "2026-04-01T03:43:08.785920Z",
      "apogee_km": 476.05433501330936,
      "perigee_km": 474.29974955220405,
      "latitude_deg": -7.909155428349106e-06,
      "longitude_deg": 162.80413518895492,
      "height_km": 476.13344775897053,
      "semi_major_axis_km": 6853.314042282756,
      "eccentricity": 0.00012801,
      "inclination_deg": 53.1595,
      "raan_deg": 48.1128,
      "arg_perigee_deg": 93.8162,
      "mean_anomaly_deg": 266.2985,
      "mean_motion_rev_day": 15.30212736
    },
    {
      "epoch": "2026-04-02T20:28:31.302912Z",
      "apogee_km": 476.0894997803425,
      "perigee_km": 474.10617361860113,
      "latitude_deg": 2.36171019771241e-05,
      "longitude_deg": -98.10076039112208,
      "height_km": 476.2100784843027,
      "semi_major_axis_km": 6853.234836699471,
      "eccentricity": 0.0001447,
      "inclination_deg": 53.1611,
      "raan_deg": 40.2255,
      "arg_perigee_deg": 102.4765,
      "mean_anomaly_deg": 257.6398,
      "mean_motion_rev_day": 15.30239264
    },
    {
      "epoch": "2026-04-03T19:59:20.476032Z",
      "apogee_km": 477.424481766041,
      "perigee_km": 473.01229156810405,
      "latitude_deg": 1.755683188211202e-05,
      "longitude_deg": -96.32082453574212,
      "height_km": 476.4340977255109,
      "semi_major_axis_km": 6853.355386667072,
      "eccentricity": 0.0003219,
      "inclination_deg": 53.1609,
      "raan_deg": 35.676,
      "arg_perigee_deg": 98.3515,
      "mean_anomaly_deg": 261.7851,
      "mean_motion_rev_day": 15.30198889
    },
    {
      "epoch": "2026-04-04T19:30:07.771680Z",
      "apogee_km": 476.34442594961183,
      "perigee_km": 473.908776065814,
      "latitude_deg": 5.5086768629091887e-05,
      "longitude_deg": -94.53491281046657,
      "height_km": 476.34353474747064,
      "semi_major_axis_km": 6853.263601007712,
      "eccentricity": 0.0001777,
      "inclination_deg": 53.16,
      "raan_deg": 31.1246,
      "arg_perigee_deg": 105.209,
      "mean_anomaly_deg": 254.9108,
      "mean_motion_rev_day": 15.3022963
    }
  ]
}